[{"OBJECT_NAME":"STARLINK-31512","OBJECT_ID":"2024-071S","EPOCH":"2026-03-09T23:12:34.001280","MEAN_MOTION":15.27591415,"ECCENTRICITY":0.0001473,"INCLINATION":43.0022,"RA_OF_ASC_NODE":298.0292,"ARG_OF_PERICENTER":263.0766,"MEAN_ANOMALY":96.9918,"EPHEMERIS_TYPE":0,"CLASSIFICATION_TYPE":"U","NORAD_CAT_ID":59500,"ELEMENT_SET_NO":999,"REV_AT_EPOCH":10870,"BSTAR":-0.00010707348,"MEAN_MOTION_DOT":-3.208e-5,"MEAN_MOTION_DDOT":0},{"OBJECT_NAME":"KUIPER-00266","OBJECT_ID":"2026-030AB","EPOCH":"2026-03-08T21:54:37.698048","MEAN_MOTION":15.30874235,"ECCENTRICITY":0.0022313,"INCLINATION":51.8807,"RA_OF_ASC_NODE":223.5904,"ARG_OF_PERICENTER":72.5291,"MEAN_ANOMALY":287.8129,"EPHEMERIS_TYPE":0,"CLASSIFICATION_TYPE":"U","NORAD_CAT_ID":67789,"ELEMENT_SET_NO":999,"REV_AT_EPOCH":496,"BSTAR":0.00098219753,"MEAN_MOTION_DOT":0.00029701,"MEAN_MOTION_DDOT":0}]
